StoreName,StoreType,StoreOpeningDate,Address,City,State,Country,Region,Manager Name
The Majestic Veranda,MBO,2010-02-10,Unit 0721 Box 8920 DPO AA 62001,Lisastad,California,Isle of Man,South,Erika
The Trendy Lounge,Outlet Stores,2007-07-13,7177 David Glen Apt. 846 Wendyborough  MA 82617,Port Brianna,Washington,Swaziland,North,Earl
The Welcoming Lounge,Outlet Stores,2022-06-28,642 Robinson Bridge Port David  CO 19991,South Cynthia,Iowa,Ecuador,South,Matthew
The Peaceful Studio,MBO,1979-10-27,364 Andre Manors Suite 704 Jonesstad  UT 16452,Kristinabury,Kansas,Guadeloupe,East,Holly
The Coastal Entrance,SMB,1985-05-14,371 James Via New Melody  KS 52498,Guzmanton,Missouri,Rwanda,North,Matthew
The Peaceful Path,SMB,1992-08-25,30723 Cooper Ramp South Michaelburgh  DE 99740,West Johnland,Tennessee,American Samoa,South,Edward
The Rustic Hub,SMB,1988-09-20,39778 Michael Centers Katherineton  MA 66618,Meghanport,Alabama,Tonga,North,Joseph
The Bustling Cafe,Outlet Stores,1992-12-03,17617 Freeman Meadows Dorseyside  NV 90920,Bennettport,Washington,Bangladesh,West,Chelsea
The Bustling Garden,SMB,1991-05-03,144 Jennifer Port Apt. 604 New Juan  MN 18082,West Desiree,South Dakota,Guernsey,West,Carlos
The Bright Garden,Outlet Stores,2023-05-23,4359 Rebecca Land Teresastad  WV 50379,East Tracyborough,Wyoming,Senegal,East,Kimberly
The Cozy Path,SMB,1997-06-18,454 Richmond Rapid Apt. 555 Port Jillborough  ND 50996,East Wendy,North Dakota,United States Virgin Islands,South,Thomas
The Lively Cafe,MBO,2022-10-29,0981 Hernandez Mall Ayersmouth  HI 16174,Port Melissaside,Utah,Taiwan,North,Amanda
The Peaceful Path,Exclusive,2010-04-12,04749 Mcguire Ville Apt. 337 Boyerside  MI 13211,Justinside,New Jersey,China,West,Rose
The Sunny Village,Outlet Stores,1978-06-23,274 Kelley Stream Apt. 000 Alvarezland  VA 91472,Rebeccaside,Idaho,Senegal,West,Kathleen
The Trendy Arcade,Exclusive,2023-05-09,PSC 6495  Box 2502 APO AE 56441,South Johnmouth,Montana,Russian Federation,North,Laurie
The Cheerful Street,SMB,1977-02-02,83837 Kyle Fall South Kennethview  RI 32465,South Donaldhaven,Ohio,Seychelles,West,Nicole
The Sunny Garden,SMB,1980-01-02,49033 Emily Lodge Larryport  CA 42725,Adamstad,Georgia,Pakistan,South,Emma
The Serene Studio,SMB,1996-12-19,42747 Blackburn Center Port Erik  MN 77941,Schultzmouth,New Jersey,Solomon Islands,East,Robin
The Magical Cabin,MBO,1987-09-08,55454 Watkins Lane Meyersborough  NV 43789,Smithhaven,Vermont,Vanuatu,North,John
The Vibrant Boutique,Exclusive,2009-01-22,489 Dunlap Crescent Apt. 344 New Brittanyfurt  SC 26452,Adamhaven,Kentucky,Korea,West,Melanie
The Radiant Harbor,MBO,1980-06-15,PSC 6235  Box 4034 APO AP 53488,Kimberlyborough,Washington,Australia,North,Michael
The Welcoming Studio,Exclusive,1992-08-21,4116 Julia Dale South Alexishaven  NE 06762,New Richardton,Oklahoma,Mayotte,East,Allison
The Lively Veranda,Exclusive,2010-12-15,5372 Allen Street Randallmouth  IN 32976,Lake Aprilborough,Texas,Poland,North,Franklin
The Cheerful Garden,SMB,1995-12-24,162 Bennett Hollow Prestonchester  MD 64160,Phillipsville,North Carolina,Guam,East,Chad
The Majestic Garden,Outlet Stores,1978-02-05,PSC 9983  Box 6106 APO AA 14447,New Deannaton,Indiana,Montenegro,West,Brittney
The Cozy Terrace,Outlet Stores,1984-06-29,73514 Krista Hills Alexanderhaven  NH 61401,Wilsonborough,Colorado,Andorra,North,April
The Inviting Village,Outlet Stores,2020-03-23,05675 Cooper Turnpike Josebury  SC 21261,East Phillip,Idaho,Christmas Island,West,Monica
The Radiant Boulevard,SMB,2013-12-12,03777 Brad Station Suite 341 Williamsport  AR 34565,South Andrewfurt,Kentucky,Tuvalu,North,Gary
The Serene Cabin,SMB,1987-10-11,687 Olivia Green Apt. 094 Vanessaberg  AK 74792,East Robert,Oregon,Belarus,West,Christine
The Lively Boulevard,Exclusive,1979-07-01,2996 Jamie Court Suite 196 North Karentown  DE 62299,Walkerville,Ohio,Uruguay,East,Donald
The Vibrant Morning,Exclusive,2016-08-13,71521 Marks Village Wilsonview  NC 12220,Gomezberg,Wyoming,Sudan,North,Michael
The Cheerful Garden,Exclusive,1979-02-21,95503 Davis Fields Suite 325 Port Michelle  TX 61539,Wilsonland,Michigan,Mayotte,East,Julie
The Chic Retreat,MBO,1989-01-20,830 Ricky Island East Brian  NM 76797,Nicoleton,Washington,Seychelles,East,Kevin
The Rustic Corner,Exclusive,2007-05-25,1042 Clarke Mall Skinnertown  AK 70334,Millermouth,Kansas,Cook Islands,West,Elizabeth
The Stylish Street,Exclusive,2016-08-06,20162 David Drive New Zacharystad  TN 58069,Kaylabury,Maryland,Tanzania,South,Elizabeth
The Elegant Village,MBO,2003-02-27,214 Jeffrey Squares Howardburgh  NE 71431,Elizabethland,Arkansas,Montenegro,South,Amy
The Elegant Gem,Outlet Stores,1975-04-25,PSC 4089  Box 1722 APO AA 95452,New Brucechester,New Hampshire,Kazakhstan,East,Cody
The Sunny Alley,MBO,1989-10-16,620 Johnson Loaf Apt. 967 Joshuaside  IA 02101,New Christopherland,Virginia,Romania,East,Brandon
The Cozy Alley,MBO,1985-05-01,5111 Joshua Plaza Apt. 241 New Vicki  MO 76080,West Karenport,Massachusetts,Canada,East,Robert
The Lively Terrace,Outlet Stores,1971-10-11,PSC 0050  Box 0624 APO AA 04108,Port Jennifer,Montana,Myanmar,West,Jocelyn
The Whimsical Studio,MBO,2021-04-21,3581 Nelson Inlet Apt. 963 North Danaside  NJ 87413,West Michele,New Hampshire,Mayotte,North,Gregory
The Artistic Parlor,Outlet Stores,2013-09-08,289 Murray Fords Apt. 400 Forbesburgh  OH 90220,New Melissaberg,Alabama,Turkmenistan,West,Emily
The Hidden Lounge,MBO,2001-06-16,84089 Ellis Points Markberg  SD 94992,East Beverly,Maryland,Ethiopia,West,Amy
The Hidden Arcade,MBO,1979-08-20,94020 Julie Springs North Johnmouth  VA 05907,Alexanderside,Nebraska,Tanzania,West,Christine
The Bright Boutique,Exclusive,1971-05-09,3822 Justin Hill Amberfurt  FL 56041,Lake Priscilla,Kansas,Chad,West,Miguel
The Sunny Cabin,MBO,2014-04-15,PSC 5312  Box 8300 APO AE 33933,North Michaelview,New Jersey,Puerto Rico,North,Dean
The Glowing Beacon,Exclusive,1977-08-10,72300 Edwards Shore Apt. 840 Petersonstad  AL 39021,North Taramouth,Iowa,Djibouti,West,Sarah
The Majestic Arcade,Outlet Stores,1970-04-07,PSC 0619  Box 9484 APO AP 28686,Lake Frankbury,Missouri,Romania,South,Victor
The Glowing Alley,Outlet Stores,1994-05-18,PSC 6041  Box 3466 APO AP 86360,Martinezhaven,Mississippi,Oman,East,Gwendolyn
The Peaceful Boulevard,Exclusive,2006-08-23,88154 Smith Mission Apt. 362 Port Jenny  OH 67260,Hollowayburgh,California,Azerbaijan,South,Morgan
The Vibrant Street,SMB,1983-10-17,47830 Heather Club Apt. 225 North Theresaville  SD 78930,Lake Ronald,Pennsylvania,Canada,North,Jeffrey
The Serene Garden,MBO,1977-08-24,856 Brown Fords Suite 546 West Jose  WA 37780,Turnerhaven,New York,Saint Martin,East,Roy
The Radiant Veranda,Exclusive,2023-10-02,5608 Watson Drive North Jeffrey  TX 07794,Shannonburgh,New Hampshire,Japan,West,Madison
The Serene Cafe,Outlet Stores,1971-06-08,8628 Mccullough Ville Apt. 792 East Samuelfurt  WI 39251,Nicolehaven,Arkansas,Cape Verde,East,Molly
The Charming Retreat,Outlet Stores,2000-12-23,775 Warren Route Suite 239 West Christina  OH 82206,Patriciaport,South Dakota,Belarus,South,Robert
The Charming Boulevard,Outlet Stores,1974-04-02,21785 Gregory River Apt. 530 Steelestad  SD 19108,Rosston,Pennsylvania,Montenegro,East,Carla
The Quaint Arcade,SMB,1990-06-28,57946 Dennis Street Port Robert  CA 41703,Powellland,Nebraska,Hungary,West,Linda
The Chic Pavilion,SMB,2016-07-12,5837 Nicole Street Suite 758 New Shanestad  CT 41995,Lake Robertfurt,Wisconsin,Madagascar,East,Elizabeth
The Serene Garden,MBO,2008-06-14,57286 David Common Port Tinaland  MD 10802,North Angelaton,Massachusetts,Vietnam,North,Christina
The Bright Veranda,MBO,2020-06-11,83022 Brown Parks Griffinland  PA 73060,West Amanda,Oklahoma,Iran,West,Shane
The Graceful Veranda,Exclusive,1980-01-29,USNV Miller FPO AP 76721,South Joshualand,Alaska,Svalbard & Jan Mayen Islands,East,Dan
The Trendy Corner,SMB,2006-02-28,114 Kristin Locks Melendezmouth  MN 91492,Benjaminside,South Dakota,Uganda,North,Jason
The Radiant Parlor,SMB,1998-01-04,6434 Daniel Causeway East Christopher  WA 72381,Port Aliciafort,Colorado,Turkmenistan,East,Molly
The Rustic Garden,MBO,2008-07-04,86648 Lauren Squares Davisview  VA 71304,South Scottshire,Wisconsin,Dominican Republic,East,Michael
The Whimsical Corner,SMB,1984-12-26,303 Smith Circles West Lisachester  SD 78268,New Larry,Oregon,Qatar,East,Hector
The Sunny Entrance,Outlet Stores,2011-09-18,846 Watson Rue Laurenside  UT 87512,Pageside,Delaware,Libyan Arab Jamahiriya,East,James
The Chic Veranda,MBO,2017-04-21,201 James Drive Apt. 658 East Joseph  FL 64129,Lewisbury,Oklahoma,Aruba,North,Margaret
The Inviting Village,SMB,2012-06-16,92682 Holly Stream Grantbury  AK 21417,Port Troychester,Alaska,Japan,East,Kyle
The Welcoming Retreat,Outlet Stores,1996-06-04,PSC 1798  Box 7504 APO AE 03613,Josephchester,Arkansas,Netherlands,South,Amanda
The Sunny Realm,Outlet Stores,1998-05-01,5545 Laura Square Murphytown  MS 06180,Rodriguezville,North Carolina,Sri Lanka,East,Katherine
The Serene Realm,Outlet Stores,1975-11-20,4097 Oconnell Mill Apt. 574 Colemanbury  GA 89715,Castroton,Wyoming,Qatar,North,Katherine
The Inviting Corner,SMB,2019-10-12,9284 Thomas Plaza Apt. 964 Fullerborough  SD 02437,Michaelshire,Illinois,Mexico,South,Kayla
The Bustling Lantern,MBO,1992-03-17,USCGC Campos FPO AE 41379,East Mary,Massachusetts,Argentina,North,Christian
The Stylish Realm,Exclusive,1985-10-28,3770 Barnett Stream Sarashire  CO 35944,Chanstad,Louisiana,Senegal,South,Bryan
The Hidden Hub,MBO,1998-11-19,375 Price Vista Morgantown  NH 32510,Dylanberg,Arizona,Heard Island and McDonald Islands,South,Paul
The Hidden Veranda,Outlet Stores,2017-06-02,022 Mariah Branch Avilaton  NE 81901,Lake Jackmouth,Florida,Iran,West,Lisa
The Crisp Cafe,Outlet Stores,2001-07-17,86856 Sarah Roads Suite 146 North Jasonport  KS 96180,Christopherside,New Hampshire,Italy,South,Lauren
The Quaint Gem,Exclusive,2009-02-21,88740 Travis Turnpike New Matthewburgh  IN 29609,Kingmouth,New Hampshire,Norfolk Island,North,Paul
The Vibrant Corner,SMB,1975-05-03,2732 Long Trace Apt. 986 Benjaminborough  MS 91584,Hernandezmouth,Nevada,Macedonia,West,Emily
The Cheerful Harbor,Outlet Stores,1995-10-25,57679 Christopher Path Suite 339 Chambershaven  WI 27696,Amberborough,Oklahoma,Albania,East,Jesus
The Bright Pavilion,Outlet Stores,1990-11-27,USNS Carter FPO AP 46036,West Mathewland,Washington,United States of America,West,Nathan
The Coastal Garden,Exclusive,1972-05-12,67160 Webster Vista Suzannetown  MN 41127,East David,Minnesota,Western Sahara,South,Jerome
The Chic Entrance,SMB,1973-06-07,4216 Timothy Oval Lake Lesliechester  MI 98742,North Jason,Vermont,Luxembourg,West,Ruth
The Picturesque Studio,Exclusive,2010-02-17,90286 Jesus Circles Apt. 819 Wilsontown  SD 83509,East Erikmouth,Kentucky,Lithuania,South,Deanna
The Graceful Arcade,SMB,1975-03-28,030 Hanson Throughway Port Zacharytown  MO 95919,West Jeremyfort,Oregon,Latvia,North,Sharon
The Charming Path,SMB,2016-05-11,95074 Watson Skyway Jeremiahville  NY 92646,Burnsbury,Alabama,Niue,West,Nicole
The Crisp Beacon,MBO,2015-05-02,5483 Byrd Field Apt. 682 North Dawn  NY 49131,Lake Robert,California,Ukraine,East,Jamie
The Quaint Beacon,MBO,1995-07-29,65836 Mark Garden Suite 523 North Christineville  HI 94222,South Erica,Nebraska,Western Sahara,West,Matthew
The Inviting Alley,Outlet Stores,1972-03-14,88427 Nicole Manors Apt. 431 Lake Benjamin  IL 24184,Grayburgh,North Carolina,Tunisia,South,James
The Elegant Gem,SMB,2007-07-29,42979 Cummings Mill Apt. 266 West Scott  OH 25093,Garyville,North Carolina,Cyprus,East,Edward
The Sunny Lounge,Outlet Stores,1996-06-03,754 Elizabeth Lane Suite 737 Terryland  NJ 59085,Mcneilmouth,Missouri,Lao People's Democratic Republic,West,Michael
The Glowing Terrace,MBO,2006-08-20,5067 Lewis Divide North Connor  RI 61142,Lake Samuelshire,Mississippi,Mexico,West,Gary
The Peaceful Hub,MBO,1992-12-30,800 Hanna Mountains New Garrett  MD 24028,North Lynnstad,Indiana,Liberia,East,Jill
The Charming Terrace,MBO,2017-03-07,267 Jessica Locks Suite 233 Lake Catherine  MN 39168,Cathytown,Colorado,Barbados,East,Michelle
The Artistic Realm,SMB,2002-05-21,772 Francis Center Apt. 293 New Jenniferbury  WY 76160,Stephenhaven,North Carolina,Syrian Arab Republic,East,Denise
The Crisp Village,SMB,1989-01-16,314 Alexander Gardens Lake Jackmouth  MS 03611,New Douglas,Arizona,Indonesia,North,Karen
The Peaceful Lantern,Exclusive,1996-07-05,5981 Pam Stravenue Suite 343 Jimmyfort  NC 16723,Pattonland,Hawaii,Namibia,East,Benjamin
The Glowing Alley,SMB,2024-07-01,8940 Kenneth Drives East Holly  NV 92219,Silvahaven,Indiana,Finland,North,Deanna
The Majestic Parlor,MBO,1993-10-10,60784 Patricia Forest Collinshaven  TX 69954,Johntown,Rhode Island,Armenia,South,Sandra
The Graceful Boulevard,MBO,2000-07-05,0570 Barnes Avenue Lake Shannonland  CO 00502,Connerberg,New York,Guinea-Bissau,West,Walter
